{"type": "FeatureCollection", "features": [ {"type": "Feature", "properties": {"norad_id": 37418, "name": "FENGYUN 1C DEB", "group": "fengyun-1c-debris", "lat": 28.1819943799061, "lon": 65.18210566110069, "alt_km": 2528.5118014962836, "timestamp": "2025-12-15T04:01:20.740627+00:00", "meta": {"OBJECT_NAME": "FENGYUN 1C DEB", "OBJECT_ID": "1999-025EGL", "EPOCH": "2025-12-12T22:52:46.663104", "MEAN_MOTION": 11.95136527, "ECCENTRICITY": 0.10773226, "INCLINATION": 98.6118, "RA_OF_ASC_NODE": 239.0499, "ARG_OF_PERICENTER": 319.4558, "MEAN_ANOMALY": 33.087, "EPHEMERIS_TYPE": 0, "CLASSIFICATION_TYPE": "U", "NORAD_CAT_ID": 37418, "ELEMENT_SET_NO": 999, "REV_AT_EPOCH": 49487, "BSTAR": 0.0052265773, "MEAN_MOTION_DOT": 2.149e-05, "MEAN_MOTION_DDOT": 0}, "tle": {"line1": "1 37418U 99025EGL 25346.95331786  .00002149  00000+0  52266-2 0  9998", "line2": "2 37418  98.6118 239.0499 1077322 319.4558  33.0870 11.95136527494874"}}, "geometry": {"type": "Point", "coordinates": [65.18210566110069, 28.1819943799061]}}, {"type": "Feature", "properties": {"norad_id": 37420, "name": "FENGYUN 1C DEB", "group": "fengyun-1c-debris", "lat": -16.949459102474005, "lon": 156.35666946468217, "alt_km": 883.6449127365122, "timestamp": "2025-12-15T04:01:20.740637+00:00", "meta": {"OBJECT_NAME": "FENGYUN 1C DEB", "OBJECT_ID": "1999-025EGN", "EPOCH": "2025-12-08T04:40:09.470784", "MEAN_MOTION": 13.9973792, "ECCENTRICITY": 0.00707955, "INCLINATION": 98.8619, "RA_OF_ASC_NODE": 332.3305, "ARG_OF_PERICENTER": 288.8881, "MEAN_ANOMALY": 70.4618, "EPHEMERIS_TYPE": 0, "CLASSIFICATION_TYPE": "U", "NORAD_CAT_ID": 37420, "ELEMENT_SET_NO": 999, "REV_AT_EPOCH": 59701, "BSTAR": 0.00086941135, "MEAN_MOTION_DOT": 1.257e-05, "MEAN_MOTION_DDOT": 0}, "tle": {"line1": "1 37420U 99025EGN 25342.19455406  .00001257  00000+0  86941-3 0  9996", "line2": "2 37420  98.8619 332.3305 0070795 288.8881  70.4618 13.99737920597017"}}, "geometry": {"type": "Point", "coordinates": [156.35666946468217, -16.949459102474005]}}, {"type": "Feature", "properties": {"norad_id": 37421, "name": "FENGYUN 1C DEB", "group": "fengyun-1c-debris", "lat": 15.195664683823898, "lon": -58.81695196877644, "alt_km": 963.2578536955234, "timestamp": "2025-12-15T04:01:20.740647+00:00", "meta": {"OBJECT_NAME": "FENGYUN 1C DEB", "OBJECT_ID": "1999-025EGP", "EPOCH": "2025-12-14T02:52:13.809792", "MEAN_MOTION": 13.40531569, "ECCENTRICITY": 0.04091478, "INCLINATION": 98.887, "RA_OF_ASC_NODE": 302.6956, "ARG_OF_PERICENTER": 82.0289, "MEAN_ANOMALY": 282.7056, "EPHEMERIS_TYPE": 0, "CLASSIFICATION_TYPE": "U", "NORAD_CAT_ID": 37421, "ELEMENT_SET_NO": 999, "REV_AT_EPOCH": 60964, "BSTAR": 0.00090443239, "MEAN_MOTION_DOT": 7.78e-06, "MEAN_MOTION_DDOT": 0}, "tle": {"line1": "1 37421U 99025EGP 25348.11960428  .00000778  00000+0  90443-3 0  9999", "line2": "2 37421  98.8870 302.6956 0409147  82.0289 282.7056 13.40531569609646"}}, "geometry": {"type": "Point", "coordinates": [-58.81695196877644, 15.195664683823898]}}, {"type": "Feature", "properties": {"norad_id": 37423, "name": "FENGYUN 1C DEB", "group": "fengyun-1c-debris", "lat": -65.68755841174251, "lon": 59.36205993767895, "alt_km": 902.2985036449563, "timestamp": "2025-12-15T04:01:20.740657+00:00", "meta": {"OBJECT_NAME": "FENGYUN 1C DEB", "OBJECT_ID": "1999-025EGR", "EPOCH": "2025-12-13T09:41:36.608352", "MEAN_MOTION": 14.07556679, "ECCENTRICITY": 0.00494568, "INCLINATION": 98.7863, "RA_OF_ASC_NODE": 37.6275, "ARG_OF_PERICENTER": 157.774, "MEAN_ANOMALY": 202.5588, "EPHEMERIS_TYPE": 0, "CLASSIFICATION_TYPE": "U", "NORAD_CAT_ID": 37423, "ELEMENT_SET_NO": 999, "REV_AT_EPOCH": 63619, "BSTAR": 0.0010796385, "MEAN_MOTION_DOT": 1.799e-05, "MEAN_MOTION_DDOT": 0}, "tle": {"line1": "1 37423U 99025EGR 25347.40389593  .00001799  00000+0  10796-2 0  9996", "line2": "2 37423  98.7863  37.6275 0049456 157.7740 202.5588 14.07556679636196"}}, "geometry": {"type": "Point", "coordinates": [59.36205993767895, -65.68755841174251]}}, {"type": "Feature", "properties": {"norad_id": 37424, "name": "FENGYUN 1C DEB", "group": "fengyun-1c-debris", "lat": -72.53298803521956, "lon": -86.47095818422709, "alt_km": 694.4389490820549, "timestamp": "2025-12-15T04:01:20.740667+00:00", "meta": {"OBJECT_NAME": "FENGYUN 1C DEB", "OBJECT_ID": "1999-025EGS", "EPOCH": "2025-12-10T14:24:58.325184", "MEAN_MOTION": 14.17832081, "ECCENTRICITY": 0.0215746, "INCLINATION": 97.2028, "RA_OF_ASC_NODE": 113.5139, "ARG_OF_PERICENTER": 288.8478, "MEAN_ANOMALY": 68.9416, "EPHEMERIS_TYPE": 0, "CLASSIFICATION_TYPE": "U", "NORAD_CAT_ID": 37424, "ELEMENT_SET_NO": 999, "REV_AT_EPOCH": 68543, "BSTAR": 0.0014046, "MEAN_MOTION_DOT": 3.573e-05, "MEAN_MOTION_DDOT": 0}, "tle": {"line1": "1 37424U 99025EGS 25344.60067506  .00003573  00000+0  14046-2 0  9997", "line2": "2 37424  97.2028 113.5139 0215746 288.8478  68.9416 14.17832081685438"}}, "geometry": {"type": "Point", "coordinates": [-86.47095818422709, -72.53298803521956]}}, {"type": "Feature", "properties": {"norad_id": 37427, "name": "FENGYUN 1C DEB", "group": "fengyun-1c-debris", "lat": -79.34584869619212, "lon": -174.95339860961582, "alt_km": 453.0990467310694, "timestamp": "2025-12-15T04:01:20.740677+00:00", "meta": {"OBJECT_NAME": "FENGYUN 1C DEB", "OBJECT_ID": "1999-025EGV", "EPOCH": "2025-12-14T02:44:11.314176", "MEAN_MOTION": 14.9807906, "ECCENTRICITY": 0.0187786, "INCLINATION": 98.621, "RA_OF_ASC_NODE": 130.1313, "ARG_OF_PERICENTER": 293.3312, "MEAN_ANOMALY": 64.8247, "EPHEMERIS_TYPE": 0, "CLASSIFICATION_TYPE": "U", "NORAD_CAT_ID": 37427, "ELEMENT_SET_NO": 999, "REV_AT_EPOCH": 60343, "BSTAR": 0.00044426333, "MEAN_MOTION_DOT": 7.495e-05, "MEAN_MOTION_DDOT": 0}, "tle": {"line1": "1 37427U 99025EGV 25348.11401984  .00007495  00000+0  44426-3 0  9995", "line2": "2 37427  98.6210 130.1313 0187786 293.3312  64.8247 14.98079060603434"}}, "geometry": {"type": "Point", "coordinates": [-174.95339860961582, -79.34584869619212]}}, {"type": "Feature", "properties": {"norad_id": 37428, "name": "FENGYUN 1C DEB", "group": "fengyun-1c-debris", "lat": -77.73630630388226, "lon": -109.81094519474156, "alt_km": 823.667509716448, "timestamp": "2025-12-15T04:01:20.740687+00:00", "meta": {"OBJECT_NAME": "FENGYUN 1C DEB", "OBJECT_ID": "1999-025EGW", "EPOCH": "2025-12-08T08:21:22.529088", "MEAN_MOTION": 14.34566274, "ECCENTRICITY": 0.00566929, "INCLINATION": 97.7218, "RA_OF_ASC_NODE": 205.4682, "ARG_OF_PERICENTER": 112.0181, "MEAN_ANOMALY": 248.7043, "EPHEMERIS_TYPE": 0, "CLASSIFICATION_TYPE": "U", "NORAD_CAT_ID": 37428, "ELEMENT_SET_NO": 999, "REV_AT_EPOCH": 63373, "BSTAR": 0.0023264608, "MEAN_MOTION_DOT": 6.657e-05, "MEAN_MOTION_DDOT": 0}, "tle": {"line1": "1 37428U 99025EGW 25342.34817742  .00006657  00000+0  23265-2 0  9994", "line2": "2 37428  97.7218 205.4682 0056692 112.0181 248.7043 14.34566274633731"}}, "geometry": {"type": "Point", "coordinates": [-109.81094519474156, -77.73630630388226]}}, {"type": "Feature", "properties": {"norad_id": 37430, "name": "FENGYUN 1C DEB", "group": "fengyun-1c-debris", "lat": -55.19488486039609, "lon": 76.11153596061625, "alt_km": 808.7723052921074, "timestamp": "2025-12-15T04:01:20.740697+00:00", "meta": {"OBJECT_NAME": "FENGYUN 1C DEB", "OBJECT_ID": "1999-025EGY", "EPOCH": "2025-12-05T03:58:16.719456", "MEAN_MOTION": 14.28846273, "ECCENTRICITY": 0.001883, "INCLINATION": 98.7668, "RA_OF_ASC_NODE": 53.2332, "ARG_OF_PERICENTER": 93.5332, "MEAN_ANOMALY": 266.8003, "EPHEMERIS_TYPE": 0, "CLASSIFICATION_TYPE": "U", "NORAD_CAT_ID": 37430, "ELEMENT_SET_NO": 999, "REV_AT_EPOCH": 61593, "BSTAR": 0.0038447795, "MEAN_MOTION_DOT": 9.683e-05, "MEAN_MOTION_DDOT": 0}, "tle": {"line1": "1 37430U 99025EGY 25339.16547129  .00009683  00000+0  38448-2 0  9993", "line2": "2 37430  98.7668  53.2332 0018830  93.5332 266.8003 14.28846273615930"}}, "geometry": {"type": "Point", "coordinates": [76.11153596061625, -55.19488486039609]}}, {"type": "Feature", "properties": {"norad_id": 37432, "name": "FENGYUN 1C DEB", "group": "fengyun-1c-debris", "lat": -49.23994682186207, "lon": 172.77245586287205, "alt_km": 637.8974093222705, "timestamp": "2025-12-15T04:01:20.740708+00:00", "meta": {"OBJECT_NAME": "FENGYUN 1C DEB", "OBJECT_ID": "1999-025EHA", "EPOCH": "2025-12-12T18:46:35.091840", "MEAN_MOTION": 14.53438579, "ECCENTRICITY": 0.01819937, "INCLINATION": 98.1851, "RA_OF_ASC_NODE": 0.0534, "ARG_OF_PERICENTER": 287.8092, "MEAN_ANOMALY": 70.3323, "EPHEMERIS_TYPE": 0, "CLASSIFICATION_TYPE": "U", "NORAD_CAT_ID": 37432, "ELEMENT_SET_NO": 999, "REV_AT_EPOCH": 8377, "BSTAR": 0.0012672353, "MEAN_MOTION_DOT": 6.523e-05, "MEAN_MOTION_DDOT": 0}, "tle": {"line1": "1 37432U 99025EHA 25346.78235060  .00006523  00000+0  12672-2 0  9990", "line2": "2 37432  98.1851   0.0534 0181993 287.8092  70.3323 14.53438579 83774"}}, "geometry": {"type": "Point", "coordinates": [172.77245586287205, -49.23994682186207]}}, {"type": "Feature", "properties": {"norad_id": 37435, "name": "FENGYUN 1C DEB", "group": "fengyun-1c-debris", "lat": -53.55542392241671, "lon": -166.46234965059796, "alt_km": 843.9405707556944, "timestamp": "2025-12-15T04:01:20.740738+00:00", "meta": {"OBJECT_NAME": "FENGYUN 1C DEB", "OBJECT_ID": "1999-025EHD", "EPOCH": "2025-12-13T08:42:56.940192", "MEAN_MOTION": 14.22368341, "ECCENTRICITY": 0.00403043, "INCLINATION": 98.6487, "RA_OF_ASC_NODE": 23.6617, "ARG_OF_PERICENTER": 12.4728, "MEAN_ANOMALY": 347.7438, "EPHEMERIS_TYPE": 0, "CLASSIFICATION_TYPE": "U", "NORAD_CAT_ID": 37435, "ELEMENT_SET_NO": 999, "REV_AT_EPOCH": 88948, "BSTAR": 0.0015840008, "MEAN_MOTION_DOT": 3.512e-05, "MEAN_MOTION_DDOT": 0}, "tle": {"line1": "1 37435U 99025EHD 25347.36315903  .00003512  00000+0  15840-2 0  9998", "line2": "2 37435  98.6487  23.6617 0040304  12.4728 347.7438 14.22368341889483"}}, "geometry": {"type": "Point", "coordinates": [-166.46234965059796, -53.55542392241671]}}]}